[{"OBJECT_NAME":"STARLINK-35053","OBJECT_ID":"2025-207T","EPOCH":"2026-03-09T18:00:33.016896","MEAN_MOTION":15.05647822,"ECCENTRICITY":2.684e-5,"INCLINATION":97.6027,"RA_OF_ASC_NODE":138.7711,"ARG_OF_PERICENTER":225.1605,"MEAN_ANOMALY":134.96,"EPHEMERIS_TYPE":0,"CLASSIFICATION_TYPE":"U","NORAD_CAT_ID":65609,"ELEMENT_SET_NO":999,"REV_AT_EPOCH":2811,"BSTAR":0.00045328842,"MEAN_MOTION_DOT":6.485e-5,"MEAN_MOTION_DDOT":0},{"OBJECT_NAME":"MINOTAUR 4 DEB","OBJECT_ID":"2020-046AB","EPOCH":"2026-03-09T21:53:22.840224","MEAN_MOTION":15.04149387,"ECCENTRICITY":0.00103054,"INCLINATION":53.9803,"RA_OF_ASC_NODE":316.6393,"ARG_OF_PERICENTER":80.1776,"MEAN_ANOMALY":280.0387,"EPHEMERIS_TYPE":0,"CLASSIFICATION_TYPE":"U","NORAD_CAT_ID":52037,"ELEMENT_SET_NO":999,"REV_AT_EPOCH":22693,"BSTAR":0.00012711185,"MEAN_MOTION_DOT":1.507e-5,"MEAN_MOTION_DDOT":0}]
